CCSDS_OMM_VERS = 2.0
CREATION_DATE  = 
ORIGINATOR     = 

OBJECT_NAME    = STARLINK-37085
OBJECT_ID      = 2026-054W
CENTER_NAME    = EARTH
REF_FRAME      = TEME
TIME_SYSTEM    = UTC
MEAN_ELEMENT_THEORY = SGP/SGP4

EPOCH          = 2026-03-28T04:00:01.999584
MEAN_MOTION    = 15.80894769
ECCENTRICITY   = .00013251
INCLINATION    = 53.1590
RA_OF_ASC_NODE = 219.8981
ARG_OF_PERICENTER = 93.6337
MEAN_ANOMALY   = 74.2626

EPHEMERIS_TYPE = 0
CLASSIFICATION_TYPE = U
NORAD_CAT_ID   = 68252
ELEMENT_SET_NO = 999
REV_AT_EPOCH   = 288
BSTAR          = -.20879214E-3
MEAN_MOTION_DOT = -.41752E-3
MEAN_MOTION_DDOT = 0

CCSDS_OMM_VERS = 2.0
CREATION_DATE  = 
ORIGINATOR     = 

OBJECT_NAME    = STARLINK-37086
OBJECT_ID      = 2026-054X
CENTER_NAME    = EARTH
REF_FRAME      = TEME
TIME_SYSTEM    = UTC
MEAN_ELEMENT_THEORY = SGP/SGP4

EPOCH          = 2026-03-28T04:00:01.999584
MEAN_MOTION    = 15.81042336
ECCENTRICITY   = .00010392
INCLINATION    = 53.1589
RA_OF_ASC_NODE = 219.8900
ARG_OF_PERICENTER = 83.4557
MEAN_ANOMALY   = 88.6966

EPHEMERIS_TYPE = 0
CLASSIFICATION_TYPE = U
NORAD_CAT_ID   = 68253
ELEMENT_SET_NO = 999
REV_AT_EPOCH   = 288
BSTAR          = -.164085E-2
MEAN_MOTION_DOT = -.315474E-2
MEAN_MOTION_DDOT = 0

CCSDS_OMM_VERS = 2.0
CREATION_DATE  = 
ORIGINATOR     = 

OBJECT_NAME    = STARLINK-37084
OBJECT_ID      = 2026-054Y
CENTER_NAME    = EARTH
REF_FRAME      = TEME
TIME_SYSTEM    = UTC
MEAN_ELEMENT_THEORY = SGP/SGP4

EPOCH          = 2026-03-28T04:00:01.999584
MEAN_MOTION    = 15.80900306
ECCENTRICITY   = .00011019
INCLINATION    = 53.1589
RA_OF_ASC_NODE = 219.8720
ARG_OF_PERICENTER = 87.3334
MEAN_ANOMALY   = 93.3783

EPHEMERIS_TYPE = 0
CLASSIFICATION_TYPE = U
NORAD_CAT_ID   = 68254
ELEMENT_SET_NO = 999
REV_AT_EPOCH   = 288
BSTAR          = -.27360682E-3
MEAN_MOTION_DOT = -.54429E-3
MEAN_MOTION_DDOT = 0

CCSDS_OMM_VERS = 2.0
CREATION_DATE  = 
ORIGINATOR     = 

OBJECT_NAME    = STARLINK-37075
OBJECT_ID      = 2026-054Z
CENTER_NAME    = EARTH
REF_FRAME      = TEME
TIME_SYSTEM    = UTC
MEAN_ELEMENT_THEORY = SGP/SGP4

EPOCH          = 2026-03-28T04:00:01.999584
MEAN_MOTION    = 15.80886487
ECCENTRICITY   = .0001073
INCLINATION    = 53.1590
RA_OF_ASC_NODE = 219.8808
ARG_OF_PERICENTER = 94.6462
MEAN_ANOMALY   = 81.8006

EPHEMERIS_TYPE = 0
CLASSIFICATION_TYPE = U
NORAD_CAT_ID   = 68255
ELEMENT_SET_NO = 999
REV_AT_EPOCH   = 288
BSTAR          = -.27523393E-3
MEAN_MOTION_DOT = -.54712E-3
MEAN_MOTION_DDOT = 0

CCSDS_OMM_VERS = 2.0
CREATION_DATE  = 
ORIGINATOR     = 

OBJECT_NAME    = STARLINK-36333
OBJECT_ID      = 2026-054AA
CENTER_NAME    = EARTH
REF_FRAME      = TEME
TIME_SYSTEM    = UTC
MEAN_ELEMENT_THEORY = SGP/SGP4

EPOCH          = 2026-03-28T04:00:01.999584
MEAN_MOTION    = 15.80891530
ECCENTRICITY   = .00009327
INCLINATION    = 53.1590
RA_OF_ASC_NODE = 219.8635
ARG_OF_PERICENTER = 66.6920
MEAN_ANOMALY   = 118.2949

EPHEMERIS_TYPE = 0
CLASSIFICATION_TYPE = U
NORAD_CAT_ID   = 68256
ELEMENT_SET_NO = 999
REV_AT_EPOCH   = 292
BSTAR          = -.297821E-3
MEAN_MOTION_DOT = -.59127E-3
MEAN_MOTION_DDOT = 0

CCSDS_OMM_VERS = 2.0
CREATION_DATE  = 
ORIGINATOR     = 

OBJECT_NAME    = STARLINK-36745
OBJECT_ID      = 2026-054AB
CENTER_NAME    = EARTH
REF_FRAME      = TEME
TIME_SYSTEM    = UTC
MEAN_ELEMENT_THEORY = SGP/SGP4

EPOCH          = 2026-03-28T04:00:01.999584
MEAN_MOTION    = 15.80854217
ECCENTRICITY   = .00006614
INCLINATION    = 53.1587
RA_OF_ASC_NODE = 219.8447
ARG_OF_PERICENTER = 93.8623
MEAN_ANOMALY   = 99.7425

EPHEMERIS_TYPE = 0
CLASSIFICATION_TYPE = U
NORAD_CAT_ID   = 68257
ELEMENT_SET_NO = 999
REV_AT_EPOCH   = 288
BSTAR          = -.16845411E-3
MEAN_MOTION_DOT = -.33785E-3
MEAN_MOTION_DDOT = 0

CCSDS_OMM_VERS = 2.0
CREATION_DATE  = 
ORIGINATOR     = 

OBJECT_NAME    = STARLINK-36890
OBJECT_ID      = 2026-054AC
CENTER_NAME    = EARTH
REF_FRAME      = TEME
TIME_SYSTEM    = UTC
MEAN_ELEMENT_THEORY = SGP/SGP4

EPOCH          = 2026-03-28T04:00:01.999584
MEAN_MOTION    = 15.80877845
ECCENTRICITY   = .00009853
INCLINATION    = 53.1589
RA_OF_ASC_NODE = 219.8367
ARG_OF_PERICENTER = 87.0385
MEAN_ANOMALY   = 110.7679

EPHEMERIS_TYPE = 0
CLASSIFICATION_TYPE = U
NORAD_CAT_ID   = 68258
ELEMENT_SET_NO = 999
REV_AT_EPOCH   = 288
BSTAR          = -.1208705E-3
MEAN_MOTION_DOT = -.24492E-3
MEAN_MOTION_DDOT = 0

CCSDS_OMM_VERS = 2.0
CREATION_DATE  = 
ORIGINATOR     = 

OBJECT_NAME    = STARLINK-36323
OBJECT_ID      = 2026-054AD
CENTER_NAME    = EARTH
REF_FRAME      = TEME
TIME_SYSTEM    = UTC
MEAN_ELEMENT_THEORY = SGP/SGP4

EPOCH          = 2026-03-28T04:00:01.999584
MEAN_MOTION    = 15.80893565
ECCENTRICITY   = .00011694
INCLINATION    = 53.1589
RA_OF_ASC_NODE = 219.8543
ARG_OF_PERICENTER = 87.4400
MEAN_ANOMALY   = 101.8137

EPHEMERIS_TYPE = 0
CLASSIFICATION_TYPE = U
NORAD_CAT_ID   = 68259
ELEMENT_SET_NO = 999
REV_AT_EPOCH   = 292
BSTAR          = -.20166368E-3
MEAN_MOTION_DOT = -.40353E-3
MEAN_MOTION_DDOT = 0

CCSDS_OMM_VERS = 2.0
CREATION_DATE  = 
ORIGINATOR     = 

OBJECT_NAME    = STARLINK-37056
OBJECT_ID      = 2026-054AE
CENTER_NAME    = EARTH
REF_FRAME      = TEME
TIME_SYSTEM    = UTC
MEAN_ELEMENT_THEORY = SGP/SGP4

EPOCH          = 2026-03-28T04:00:01.999584
MEAN_MOTION    = 15.80890141
ECCENTRICITY   = .00012723
INCLINATION    = 53.1587
RA_OF_ASC_NODE = 219.8277
ARG_OF_PERICENTER = 73.9416
MEAN_ANOMALY   = 128.1280

EPHEMERIS_TYPE = 0
CLASSIFICATION_TYPE = U
NORAD_CAT_ID   = 68260
ELEMENT_SET_NO = 999
REV_AT_EPOCH   = 288
BSTAR          = -.1835002E-3
MEAN_MOTION_DOT = -.36791E-3
MEAN_MOTION_DDOT = 0

CCSDS_OMM_VERS = 2.0
CREATION_DATE  = 
ORIGINATOR     = 

OBJECT_NAME    = TEN-KOH 2
OBJECT_ID      = 2025-241B
CENTER_NAME    = EARTH
REF_FRAME      = TEME
TIME_SYSTEM    = UTC
MEAN_ELEMENT_THEORY = SGP/SGP4

EPOCH          = 2026-03-28T03:04:54.952320
MEAN_MOTION    = 15.22728041
ECCENTRICITY   = .00044415
INCLINATION    = 51.6384
RA_OF_ASC_NODE = 345.1973
ARG_OF_PERICENTER = 222.8314
MEAN_ANOMALY   = 137.2318

EPHEMERIS_TYPE = 0
CLASSIFICATION_TYPE = U
NORAD_CAT_ID   = 68261
ELEMENT_SET_NO = 999
REV_AT_EPOCH   = 255
BSTAR          = .39296581E-3
MEAN_MOTION_DOT = .8973E-4
MEAN_MOTION_DDOT = 0

CCSDS_OMM_VERS = 2.0
CREATION_DATE  = 
ORIGINATOR     = 

OBJECT_NAME    = STARLINK-37162
OBJECT_ID      = 2026-055A
CENTER_NAME    = EARTH
REF_FRAME      = TEME
TIME_SYSTEM    = UTC
MEAN_ELEMENT_THEORY = SGP/SGP4

EPOCH          = 2026-03-28T04:00:01.999584
MEAN_MOTION    = 15.96544834
ECCENTRICITY   = .00006751
INCLINATION    = 53.1580
RA_OF_ASC_NODE = 245.1013
ARG_OF_PERICENTER = 71.7354
MEAN_ANOMALY   = 97.7681

EPHEMERIS_TYPE = 0
CLASSIFICATION_TYPE = U
NORAD_CAT_ID   = 68262
ELEMENT_SET_NO = 999
REV_AT_EPOCH   = 260
BSTAR          = -.22471364E-2
MEAN_MOTION_DOT = -.974144E-2
MEAN_MOTION_DDOT = .3054528E-3

CCSDS_OMM_VERS = 2.0
CREATION_DATE  = 
ORIGINATOR     = 

OBJECT_NAME    = STARLINK-37156
OBJECT_ID      = 2026-055B
CENTER_NAME    = EARTH
REF_FRAME      = TEME
TIME_SYSTEM    = UTC
MEAN_ELEMENT_THEORY = SGP/SGP4

EPOCH          = 2026-03-28T04:00:01.999584
MEAN_MOTION    = 15.96638125
ECCENTRICITY   = .00007711
INCLINATION    = 53.1579
RA_OF_ASC_NODE = 245.0970
ARG_OF_PERICENTER = 66.7381
MEAN_ANOMALY   = 105.0304

EPHEMERIS_TYPE = 0
CLASSIFICATION_TYPE = U
NORAD_CAT_ID   = 68263
ELEMENT_SET_NO = 999
REV_AT_EPOCH   = 260
BSTAR          = -.22342844E-2
MEAN_MOTION_DOT = -.973554E-2
MEAN_MOTION_DDOT = .3054122E-3

