STARLINK-37085          
1 68252U 26054W   26087.16668981 -.00041752  00000+0 -20879-3 0  9997
2 68252  53.1590 219.8981 0001325  93.6337  74.2626 15.80894769  2880
STARLINK-37086          
1 68253U 26054X   26087.16668981 -.00315474  00000+0 -16408-2 0  9995
2 68253  53.1589 219.8900 0001039  83.4557  88.6966 15.81042336  2885
STARLINK-37084          
1 68254U 26054Y   26087.16668981 -.00054429  00000+0 -27361-3 0  9997
2 68254  53.1589 219.8720 0001102  87.3334  93.3783 15.80900306  2882
STARLINK-37075          
1 68255U 26054Z   26087.16668981 -.00054712  00000+0 -27523-3 0  9993
2 68255  53.1590 219.8808 0001073  94.6462  81.8006 15.80886487  2885
STARLINK-36333          
1 68256U 26054AA  26087.16668981 -.00059127  00000+0 -29782-3 0  9998
2 68256  53.1590 219.8635 0000933  66.6920 118.2949 15.80891530  2927
STARLINK-36745          
1 68257U 26054AB  26087.16668981 -.00033785  00000+0 -16845-3 0  9997
2 68257  53.1587 219.8447 0000661  93.8623  99.7425 15.80854217  2883
STARLINK-36890          
1 68258U 26054AC  26087.16668981 -.00024492  00000+0 -12087-3 0  9997
2 68258  53.1589 219.8367 0000985  87.0385 110.7679 15.80877844  2882
STARLINK-36323          
1 68259U 26054AD  26087.16668981 -.00040353  00000+0 -20166-3 0  9999
2 68259  53.1589 219.8543 0001169  87.4400 101.8137 15.80893565  2929
STARLINK-37056          
1 68260U 26054AE  26087.16668981 -.00036791  00000+0 -18350-3 0  9994
2 68260  53.1587 219.8277 0001272  73.9416 128.1280 15.80890141  2888
TEN-KOH 2               
1 68261U 25241B   26087.12841380  .00008973  00000+0  39297-3 0  9996
2 68261  51.6384 345.1973 0004441 222.8314 137.2318 15.22728041  2558
STARLINK-37162          
1 68262U 26055A   26087.16668981 -.00974144  30545-3 -22471-2 0  9999
2 68262  53.1580 245.1013 0000675  71.7354  97.7681 15.96544834  2604
STARLINK-37156          
1 68263U 26055B   26087.16668981 -.00973554  30541-3 -22343-2 0  9998
2 68263  53.1579 245.0970 0000771  66.7381 105.0304 15.96638125  2607
